OBJECT_NAME,OBJECT_ID,EPOCH,MEAN_MOTION,ECCENTRICITY,INCLINATION,RA_OF_ASC_NODE,ARG_OF_PERICENTER,MEAN_ANOMALY,EPHEMERIS_TYPE,CLASSIFICATION_TYPE,NORAD_CAT_ID,ELEMENT_SET_NO,REV_AT_EPOCH,BSTAR,MEAN_MOTION_DOT,MEAN_MOTION_DDOT
TIANMU-1 21,2023-208C,2026-06-17T13:45:55.867392,15.35082337,.0005939,97.4513,288.1928,322.0314,38.0509,0,U,58662,999,13762,.21914E-3,.7381E-4,0
TIANMU-1 22,2023-208D,2026-06-17T11:09:24.778368,15.31061129,.0003174,97.4506,284.7014,3.2288,356.8973,0,U,58663,999,13737,.20391E-3,.6041E-4,0
TIANMU-1 15,2024-004A,2026-06-17T13:22:33.596256,15.27026285,.0006661,97.4666,354.7473,1.0983,359.0269,0,U,58700,999,13583,.16276E-3,.4243E-4,0
TIANMU-1 16,2024-004B,2026-06-17T13:07:09.418656,15.26751413,.0005792,97.4612,353.9731,6.7589,353.3727,0,U,58701,999,13583,.16878E-3,.4366E-4,0
TIANMU-1 17,2024-004C,2026-06-17T12:46:12.627840,15.26750466,.0005494,97.4639,354.4437,13.3902,346.7481,0,U,58702,999,13582,.17205E-3,.4451E-4,0
TIANMU-1 18,2024-004D,2026-06-17T12:12:07.704000,15.27007931,.0004021,97.4657,354.6757,14.2084,345.9267,0,U,58703,999,13582,.16601E-3,.4326E-4,0
INSAT-3DS,2024-033A,2026-06-16T16:49:38.025120,1.00271371,.0001001,0.0433,112.2519,322.3943,164.8294,0,U,58990,999,4706,0,-.158E-5,0
METEOR-M2 4,2024-039A,2026-06-17T12:50:36.405312,14.22429541,.0007311,98.7010,127.8287,159.9698,200.1768,0,U,59051,999,11931,.19673E-4,0,0
GOES 19,2024-119A,2026-06-16T14:22:05.432736,1.00271370,.0000387,0.0076,86.7798,98.2994,220.1202,0,U,60133,999,695,0,-.25E-5,0
MTG-S1,2025-143A,2026-06-16T18:07:33.631104,1.00272107,.0000992,0.6036,338.8844,11.8800,182.6770,0,U,64723,999,341,0,-.34E-6,0
METOP-SGA1,2025-172A,2026-06-16T03:40:47.624736,14.21509720,.0000902,98.6644,226.8998,93.8213,266.3067,0,U,65159,999,4364,.41999845E-4,.49E-6,0
FENGYUN 3H,2025-219A,2026-06-17T11:07:56.995968,14.19920485,.0001597,98.6768,109.2276,76.6448,283.4906,0,U,65815,999,3742,.36653E-4,.34E-6,0
