TIANMU-1 21             
1 58662U 23208C   26168.57356328  .00007381  00000+0  21914-3 0  9992
2 58662  97.4513 288.1928 0005939 322.0314  38.0509 15.35082337137628
TIANMU-1 22             
1 58663U 23208D   26168.46487012  .00006041  00000+0  20391-3 0  9996
2 58663  97.4506 284.7014 0003174   3.2288 356.8973 15.31061129137376
TIANMU-1 15             
1 58700U 24004A   26168.55733329  .00004243  00000+0  16276-3 0  9997
2 58700  97.4666 354.7473 0006661   1.0983 359.0269 15.27026285135835
TIANMU-1 16             
1 58701U 24004B   26168.54663679  .00004366  00000+0  16878-3 0  9991
2 58701  97.4612 353.9731 0005792   6.7589 353.3727 15.26751413135836
TIANMU-1 17             
1 58702U 24004C   26168.53209060  .00004451  00000+0  17205-3 0  9991
2 58702  97.4639 354.4437 0005494  13.3902 346.7481 15.26750466135826
TIANMU-1 18             
1 58703U 24004D   26168.50842250  .00004326  00000+0  16601-3 0  9993
2 58703  97.4657 354.6757 0004021  14.2084 345.9267 15.27007931135826
INSAT-3DS               
1 58990U 24033A   26167.70113455 -.00000158  00000+0  00000+0 0  9994
2 58990   0.0433 112.2519 0001001 322.3943 164.8294  1.00271371 47065
METEOR-M2 4             
1 59051U 24039A   26168.53514358  .00000000  00000+0  19673-4 0  9994
2 59051  98.7010 127.8287 0007311 159.9698 200.1768 14.22429541119314
GOES 19                 
1 60133U 24119A   26167.59867399 -.00000250  00000+0  00000+0 0  9994
2 60133   0.0076  86.7798 0000387  98.2994 220.1202  1.00271370  6952
MTG-S1                  
1 64723U 25143A   26167.75525036 -.00000034  00000+0  00000+0 0  9998
2 64723   0.6036 338.8844 0000992  11.8800 182.6770  1.00272107  3414
METOP-SGA1              
1 65159U 25172A   26167.15332899  .00000049  00000+0  42000-4 0  9997
2 65159  98.6644 226.8998 0000902  93.8213 266.3067 14.21509720 43644
FENGYUN 3H              
1 65815U 25219A   26168.46385412  .00000034  00000+0  36653-4 0  9993
2 65815  98.6768 109.2276 0001597  76.6448 283.4906 14.19920485 37426
